COMMENT,ORIGINATOR,NORAD_CAT_ID,OBJECT_NAME,OBJECT_TYPE,CLASSIFICATION_TYPE,INTLDES,EPOCH,EPOCH_MICROSECONDS,MEAN_MOTION,ECCENTRICITY,INCLINATION,RA_OF_ASC_NODE,ARG_OF_PERICENTER,MEAN_ANOMALY,EPHEMERIS_TYPE,ELEMENT_SET_NO,REV_AT_EPOCH,BSTAR,MEAN_MOTION_DOT,MEAN_MOTION_DDOT,FILE,TLE_LINE0,TLE_LINE1,TLE_LINE2,OBJECT_ID,OBJECT_NUMBER,SEMIMAJOR_AXIS,PERIOD,APOGEE,PERIGEE
"GENERATED VIA SPACETRACK.ORG API","JSPOC","40729","FLOCK 1E 6","PAYLOAD","U","98067GM","2016-01-08 17:17:06","990720","15.68807054","0.0004557","51.6388","129.5041","190.5503","311.035","0","999","2775","0.00046839","0.00054553","0","1977807","0 FLOCK 1E 6","1 40729U 98067GM  16008.72021980  .00054553  00000-0  46839-3 0  9991","2 40729  51.6388 129.5041 0004557 190.5503 311.0350 15.68807054 27759","1998-067GM","40729","6740.448","91.789","365.385","359.242"
"GENERATED VIA SPACETRACK.ORG API","JSPOC","14759","COSMOS 1538","PAYLOAD","U","84019A","2016-01-08 17:17:11","383296","14.33520311","0.0020103","74.04","51.3908","48.0073","91.1737","0","999","66678","2.4116e-05","4.1e-07","0","1977813","0 COSMOS 1538","1 14759U 84019A   16008.72027064  .00000041  00000-0  24116-4 0  9994","2 14759  74.0400  51.3908 0020103  48.0073  91.1737 14.33520311666781","1984-019A","14759","7158.124","100.452","794.379","765.599"
"GENERATED VIA SPACETRACK.ORG API","JSPOC","29646","ARIANE 5 R/B","ROCKET BODY","U","06054D","2016-01-08 17:17:18","748896","2.48270189","0.7112688","2.5723","210.6265","190.0595","138.5212","0","999","7858","0.00044896","1.326e-05","0","1978186","0 ARIANE 5 R/B","1 29646U 06054D   16008.72035589 +.00001326 +00000-0 +44896-3 0  9992","2 29646 002.5723 210.6265 7112688 190.0595 138.5212 02.48270189078583","2006-054D","29646","23038.389","580.013","33046.742","273.766"
"GENERATED VIA SPACETRACK.ORG API","JSPOC","25759","PSLV R/B","ROCKET BODY","U","99029D","2016-01-08 17:17:29","53824","14.53705287","0.0020392","98.4144","280.9619","50.0029","340.0482","0","999","88118","3.1066e-05","8.4e-07","0","1978186","0 PSLV R/B","1 25759U 99029D   16008.72047516 +.00000084 +00000-0 +31066-4 0  9996","2 25759 098.4144 280.9619 0020392 050.0029 340.0482 14.53705287881186","1999-029D","25759","7091.709","99.057","728.035","699.112"
"GENERATED VIA SPACETRACK.ORG API","JSPOC","13649","SL-8 R/B","ROCKET BODY","U","82109B","2016-01-08 17:17:42","988416","14.36976135","0.0018765","74","260.4723","184.1992","201.4388","0","999","73614","3.1502e-05","6.7e-07","0","1977768","0 SL-8 R/B","1 13649U 82109B   16008.72063644  .00000067  00000-0  31502-4 0  9998","2 13649  74.0000 260.4723 0018765 184.1992 201.4388 14.36976135736143","1982-109B","13649","7146.643","100.210","781.919","755.098"
"GENERATED VIA SPACETRACK.ORG API","JSPOC","6682","COSMOS 571","PAYLOAD","U","73037H","2016-01-08 17:17:44","869344","12.65860274","0.010257","74.0192","83.6236","164.6595","327.3116","0","999","96801","4.3268e-05","-8e-08","0","1977829","0 COSMOS 571","1 06682U 73037H   16008.72065821 -.00000008  00000-0  43268-4 0  9994","2 06682  74.0192  83.6236 0102570 164.6595 327.3116 12.65860274968014","1973-037H","6682","7776.986","113.756","1478.619","1319.082"
"GENERATED VIA SPACETRACK.ORG API","JSPOC","14612","COSMOS 1523","PAYLOAD","U","84001B","2016-01-08 17:18:07","283232","12.58597101","0.0042573","74.0054","89.0081","265.9581","266.8527","0","999","47060","4.6374e-05","-9e-08","0","1978186","0 COSMOS 1523","1 14612U 84001B   16008.72091763 -.00000009 +00000-0 +46374-4 0  9995","2 14612 074.0054 089.0081 0042573 265.9581 266.8527 12.58597101470601","1984-001B","14612","7806.877","114.413","1461.978","1395.506"
"GENERATED VIA SPACETRACK.ORG API","JSPOC","37816","EUTE 7 WEST A (AB 7)","PAYLOAD","U","11051A","2016-01-08 17:18:08","119584","1.00270939","0.0004703","0.0589","4.987","269.3176","85.6384","0","999","1574","0","-5.4e-07","0","1978148","0 EUTE 7 WEST A (AB 7)","1 37816U 11051A   16008.72092731 -.00000054  00000-0  00000+0 0  9998","2 37816   0.0589   4.9870 0004703 269.3176  85.6384  1.00270939 15747","2011-051A","37816","42164.969","1436.109","35806.664","35767.003"
"GENERATED VIA SPACETRACK.ORG API","JSPOC","37152","COSMOS 2467","PAYLOAD","U","10043A","2016-01-08 17:18:27","980352","12.42893057","2.68e-05","82.4588","289.5874","134.3423","225.768","0","999","24193","9.3223e-05","2.3e-07","0","1978186","0 COSMOS 2467","1 37152U 10043A   16008.72115718 +.00000023 +00000-0 +93223-4 0  9991","2 37152 082.4588 289.5874 0000268 134.3423 225.7680 12.42893057241934","2010-043A","37152","7872.499","115.858","1494.575","1494.153"
"GENERATED VIA SPACETRACK.ORG API","JSPOC","16735","METEOR 2-14","PAYLOAD","U","86039A","2016-01-08 17:18:42","951744","13.85243786","0.0015993","82.5364","82.5482","120.9494","34.6062","0","999","49684","4.5015e-05","6.6e-07","0","1978186","0 METEOR 2-14","1 16735U 86039A   16008.72133046 +.00000066 +00000-0 +45015-4 0  9990","2 16735 082.5364 082.5482 0015993 120.9494 034.6062 13.85243786496846","1986-039A","16735","7323.483","103.952","957.060","933.635"
"GENERATED VIA SPACETRACK.ORG API","JSPOC","11883","SL-8 R/B","ROCKET BODY","U","80058J","2016-01-08 17:18:43","144416","12.2390486","0.0132456","74.0123","83.7132","98.4431","64.1271","0","999","58636","0.0001284","0","0","1977768","0 SL-8 R/B","1 11883U 80058J   16008.72133269  .00000000  00000-0  12840-3 0  9998","2 11883  74.0123  83.7132 0132456  98.4431  64.1271 12.23904860586368","1980-058J","11883","7953.715","117.656","1680.932","1470.229"
"GENERATED VIA SPACETRACK.ORG API","JSPOC","7680","COSMOS 713","PAYLOAD","U","75016C","2016-01-08 17:19:01","163136","12.55618864","0.0058272","74.0043","107.0355","167.2406","347.3725","0","999","87286","-2.8968e-07","-1.6e-07","0","1978186","0 COSMOS 713","1  7680U 75016C   16008.72154124 -.00000016 +00000-0 -28968-6 0  9999","2  7680 074.0043 107.0355 0058272 167.2406 347.3725 12.55618864872860","1975-016C","7680","7819.217","114.684","1486.646","1395.518"
"GENERATED VIA SPACETRACK.ORG API","JSPOC","9022","COSMOS 841","PAYLOAD","U","76069A","2016-01-08 17:19:21","360000","14.35635031","0.0012354","74.0441","96.4462","30.9695","329.2183","0","999","6515","2.6824e-05","5.1e-07","0","1978186","0 COSMOS 841","1  9022U 76069A   16008.72177500 +.00000051 +00000-0 +26824-4 0  9997","2  9022 074.0441 096.4462 0012354 030.9695 329.2183 14.35635031065159","1976-069A","9022","7151.093","100.304","781.793","764.124"
"GENERATED VIA SPACETRACK.ORG API","JSPOC","16511","SL-8 R/B","ROCKET BODY","U","86008B","2016-01-08 17:19:48","994176","13.75808983","0.0023381","82.9443","249.5913","313.0397","79.3596","0","999","50376","4.8049e-05","6.2e-07","0","1978186","0 SL-8 R/B","1 16511U 86008B   16008.72209484 +.00000062 +00000-0 +48049-4 0  9994","2 16511 082.9443 249.5913 0023381 313.0397 079.3596 13.75808983503764","1986-008B","16511","7356.926","104.665","995.992","961.590"
"GENERATED VIA SPACETRACK.ORG API","JSPOC","40900","NUDT-PHONESAT","PAYLOAD","U","15049B","2016-01-08 17:19:50","194272","15.14926442","0.0014074","97.4472","19.485","252.5801","195.8777","0","999","1676","0.00028825","5.318e-05","0","1977870","0 NUDT-PHONESAT","1 40900U 15049B   16008.72210873  .00005318  00000-0  28825-3 0  9992","2 40900  97.4472  19.4850 0014074 252.5801 195.8777 15.14926442 16766","2015-049B","40900","6899.338","95.054","530.914","511.493"
"GENERATED VIA SPACETRACK.ORG API","JSPOC","13386","SL-8 R/B","ROCKET BODY","U","82073J","2016-01-08 17:19:52","396608","12.21067091","0.0154582","74.0053","118.5573","179.3207","333.3214","0","999","49207","-0.00025095","-4.2e-07","0","1978186","0 SL-8 R/B","1 13386U 82073J   16008.72213422 -.00000042 +00000-0 -25095-3 0  9991","2 13386 074.0053 118.5573 0154582 179.3207 333.3214 12.21067091492076","1982-073J","13386","7966.034","117.929","1711.039","1464.758"
"GENERATED VIA SPACETRACK.ORG API","JSPOC","39425","APRIZESAT 8","PAYLOAD","U","13066K","2016-01-08 17:19:56","829792","14.80714166","0.0052276","97.7053","69.9562","182.3424","177.7552","0","999","11513","4.2734e-05","2.84e-06","0","1977827","0 APRIZESAT 8","1 39425U 13066K   16008.72218553  .00000284  00000-0  42734-4 0  9995","2 39425  97.7053  69.9562 0052276 182.3424 177.7552 14.80714166115132","2013-066K","39425","7005.207","97.250","663.693","590.452"
"GENERATED VIA SPACETRACK.ORG API","JSPOC","40739","FLOCK 1E 12","PAYLOAD","U","98067GR","2016-01-08 17:19:57","659232","15.67666923","0.0004591","51.6383","130.2865","203.5704","299.3226","0","999","2755","0.00041579","0.0004609","0","1977853","0 FLOCK 1E 12","1 40739U 98067GR  16008.72219513  .00046090  00000-0  41579-3 0  9996","2 40739  51.6383 130.2865 0004591 203.5704 299.3226 15.67666923 27559","1998-067GR","40739","6743.716","91.856","368.677","362.485"
"GENERATED VIA SPACETRACK.ORG API","JSPOC","38733","COSMOS 2481","PAYLOAD","U","12041A","2016-01-08 17:20:13","225920","12.42363649","0.0019243","82.4764","291.9575","95.8991","264.4279","0","999","15641","0.00017563","3.4e-07","0","1977852","0 COSMOS 2481","1 38733U 12041A   16008.72237530  .00000034  00000-0  17563-3 0  9998","2 38733  82.4764 291.9575 0019243  95.8991 264.4279 12.42363649156416","2012-041A","38733","7874.736","115.908","1511.754","1481.447"
"GENERATED VIA SPACETRACK.ORG API","JSPOC","39215","ALPHASAT (I-4A F4)","PAYLOAD","U","13038A","2016-01-08 17:20:22","880256","1.00275247","0.0002514","1.1187","32.7813","249.4798","110.3916","0","999","582","0","1.46e-06","0","1978186","0 ALPHASAT (I-4A F4)","1 39215U 13038A   16008.72248704 +.00000146 +00000-0 +00000-0 0  9995","2 39215 001.1187 032.7813 0002514 249.4798 110.3916 01.00275247005823","2013-038A","39215","42163.761","1436.047","35796.226","35775.026"
